NORAD_CAT_ID,OBJECT_NAME,OBJECT_TYPE,EPOCH,MEAN_MOTION,ECCENTRICITY,INCLINATION,RA_OF_ASC_NODE,ARG_OF_PERICENTER,MEAN_ANOMALY,BSTAR,MEAN_MOTION_DOT,MEAN_MOTION_DDOT,TLE_LINE0,TLE_LINE1,TLE_LINE2,SEMIMAJOR_AXIS,PERIOD,APOGEE,PERIGEE,DECAYED
52102.0,STARLINK-3709,PAYLOAD,2022-05-29 13:21:03,15.3249745,0.0002771,53.2143,156.1466,4.2459,355.8567,-0.0058638,-0.00182491,0.0,0 STARLINK-3709,1 52102U 22029Q   22149.55628697 -.00182491  00000-0 -58638-2 0  9990,2 52102  53.2143 156.1466 0002771   4.2459 355.8567 15.32497450 12417,6846.501,93.964,470.263,466.469,0.0
52102.0,STARLINK-3709,PAYLOAD,2022-05-29 14:00:01,15.313426500000002,0.000162,53.2172,156.0345,46.2379,105.1412,-0.020421,-0.00587006,0.0,0 STARLINK-3709,1 52102U 22029Q   22149.58334491 -.00587006  00000-0 -20421-1 0  9998,2 52102  53.2172 156.0345 0001620  46.2379 105.1412 15.31342650 12418,6849.941999999999,94.035,472.917,470.698,0.0
52102.0,STARLINK-3709,PAYLOAD,2022-05-29 18:02:59,15.32278096,0.0002338,53.2143,155.2399,47.5267,312.5933,-0.0056505,-0.00174826,0.0,0 STARLINK-3709,1 52102U 22029Q   22149.75207372 -.00174826  00000-0 -56505-2 0  9999,2 52102  53.2143 155.2399 0002338  47.5267 312.5933 15.32278096 12441,6847.154,93.978,470.62,467.418,0.0
52102.0,STARLINK-3709,PAYLOAD,2022-05-29 22:00:00,15.30931249,0.0001858,53.2171,154.4852,38.3371,151.4249,-0.020774,-0.00589381,0.0,0 STARLINK-3709,1 52102U 22029Q   22149.91667824 -.00589381  00000-0 -20774-1 0  9993,2 52102  53.2171 154.4852 0001858  38.3371 151.4249 15.30931249  1304,6851.17,94.06,474.3080000000001,471.762,0.0
52102.0,STARLINK-3709,PAYLOAD,2022-05-30 03:26:59,15.31712869,0.0001262,53.2143,153.4217,27.9248,332.1822,-0.0044321,-0.0013549,0.0,0 STARLINK-3709,1 52102U 22029Q   22150.14374425 -.00135490  00000-0 -44321-2 0  9995,2 52102  53.2143 153.4217 0001262  27.9248 332.1822 15.31712869 12508,6848.839,94.012,471.568,469.839,0.0
52102.0,STARLINK-3709,PAYLOAD,2022-05-30 11:17:18,15.31307172,0.0003044,53.2143,151.9083,25.2144,334.9006,-0.0056263999999999,-0.00169021,0.0,0 STARLINK-3709,1 52102U 22029Q   22150.47034871 -.00169021  00000-0 -56264-2 0  9995,2 52102  53.2143 151.9083 0003044  25.2144 334.9006 15.31307172 12554,6850.0480000000025,94.037,473.99800000000016,469.828,0.0
52102.0,STARLINK-3709,PAYLOAD,2022-05-30 14:00:01,15.30107614,0.0001764,53.2171,151.3945,41.427,223.6116,-0.021369,-0.00590789,0.0,0 STARLINK-3709,1 52102U 22029Q   22150.58334491 -.00590789  00000-0 -21369-1 0  9994,2 52102  53.2171 151.3945 0001764  41.4270 223.6116 15.30107614  1308,6853.628000000002,94.111,476.702,474.284,0.0
52102.0,STARLINK-3709,PAYLOAD,2022-05-30 20:00:01,15.29795087,0.0001867,53.2173,150.2345,37.7034,165.0554,-0.021333,-0.00584524,0.0,0 STARLINK-3709,1 52102U 22029Q   22150.83334491 -.00584524  00000-0 -21333-1 0  9993,2 52102  53.2173 150.2345 0001867  37.7034 165.0554 15.29795087 12607,6854.561,94.13,477.706,475.147,0.0
52102.0,STARLINK-3709,PAYLOAD,2022-05-30 22:00:00,15.29691861,0.0001730999999999,53.2173,149.8482,39.8801,262.0565,-0.021423,-0.00585064,0.0,0 STARLINK-3709,1 52102U 22029Q   22150.91667824 -.00585064  00000-0 -21423-1 0  9991,2 52102  53.2173 149.8482 0001731  39.8801 262.0565 15.29691861  1308,6854.87,94.137,477.921,475.548,0.0
52102.0,STARLINK-3709,PAYLOAD,2022-05-31 02:58:03,15.30397924,0.0004115,53.215,148.8811,330.2761,29.8006,-0.0049304,-0.00144521,0.0,0 STARLINK-3709,1 52102U 22029Q   22151.12364729 -.00144521  00000-0 -49304-2 0  9991,2 52102  53.2150 148.8811 0004115 330.2761  29.8006 15.30397924 12654,6852.761,94.093,477.446,471.806,0.0
52102.0,STARLINK-3709,PAYLOAD,2022-05-31 06:06:16,15.30267962,0.0001696999999999,53.2142,148.2761,56.2482,303.8681,-0.0053461,-0.00155764,0.0,0 STARLINK-3709,1 52102U 22029Q   22151.25435912 -.00155764  00000-0 -53461-2 0  9998,2 52102  53.2142 148.2761 0001697  56.2482 303.8681 15.30267962 12674,6853.149,94.101,476.177,473.851,0.0
52102.0,STARLINK-3709,PAYLOAD,2022-05-31 14:00:01,15.28869961,0.0001622,53.2173,146.7633,39.2149,335.025,-0.022143,-0.00589253,0.0,0 STARLINK-3709,1 52102U 22029Q   22151.58334491 -.00589253  00000-0 -22143-1 0  9990,2 52102  53.2173 146.7633 0001622  39.2149 335.0250 15.28869961 12727,6857.326,94.187,480.30300000000005,478.079,0.0
52102.0,STARLINK-3709,PAYLOAD,2022-05-31 22:00:00,15.28455001,0.0001769,53.2173,145.22,35.1952,14.456,-0.02226,-0.00585131,0.0,0 STARLINK-3709,1 52102U 22029Q   22151.91667824 -.00585131  00000-0 -22260-1 0  9997,2 52102  53.2173 145.2200 0001769  35.1952  14.4560 15.28455001  1300,6858.566999999999,94.213,481.646,479.219,0.0
52102.0,STARLINK-3709,PAYLOAD,2022-06-01 20:00:01,15.27320742,0.0001742,53.2173,140.9854,34.574,19.8987,-0.023016,-0.00584367,0.0,0 STARLINK-3709,1 52102U 22029Q   22152.83334491 -.00584367  00000-0 -23016-1 0  9990,2 52102  53.2173 140.9854 0001742  34.5740  19.8987 15.27320742 12919,6861.9630000000025,94.283,485.023,482.632,0.0
52102.0,STARLINK-3709,PAYLOAD,2022-06-02 16:11:46,15.27350293,0.0001971,53.2153,137.0955,50.8626,309.2549,-0.0067216,-0.00178444,0.0,0 STARLINK-3709,1 52102U 22029Q   22153.67484773 -.00178444  00000-0 -67216-2 0  9998,2 52102  53.2153 137.0955 0001971  50.8626 309.2549 15.27350293 13043,6861.874,94.281,485.091,482.387,0.0
52102.0,STARLINK-3709,PAYLOAD,2022-06-03 03:11:53,15.26782175,9.23e-05,53.2146,134.9831,17.0607,343.0423,-0.0058841,-0.00154069,0.0,0 STARLINK-3709,1 52102U 22029Q   22154.13326311 -.00154069  00000-0 -58841-2 0  9994,2 52102  53.2146 134.9831 0000923  17.0607 343.0423 15.26782175 13116,6863.576,94.316,486.075,484.8080000000001,0.0
52102.0,STARLINK-3709,PAYLOAD,2022-06-03 11:03:37,15.26345419,0.0002071,53.2149,133.4755,51.0345,309.0839,-0.0058952,-0.00152381,0.0,0 STARLINK-3709,1 52102U 22029Q   22154.46085323 -.00152381  00000-0 -58952-2 0  9993,2 52102  53.2149 133.4755 0002071  51.0345 309.0839 15.26345419 13165,6864.885,94.343,488.172,485.329,0.0
52102.0,STARLINK-3709,PAYLOAD,2022-06-03 14:12:22,15.26217177,0.0001158,53.2151,132.8725,58.1446,301.9667,-0.0066123999999999,-0.00169806,0.0,0 STARLINK-3709,1 52102U 22029Q   22154.59192387 -.00169806  00000-0 -66124-2 0  9996,2 52102  53.2151 132.8725 0001158  58.1446 301.9667 15.26217177 13184,6865.27,94.351,487.93,486.34,0.0
52102.0,STARLINK-3709,PAYLOAD,2022-06-04 04:21:52,15.25468573,0.0001163,53.2142,130.1593,86.4851,273.6282,-0.0066775,-0.00167696,0.0,0 STARLINK-3709,1 52102U 22029Q   22155.18185737 -.00167696  00000-0 -66775-2 0  9990,2 52102  53.2142 130.1593 0001163  86.4851 273.6282 15.25468573 13273,6867.516,94.397,490.179,488.582,0.0
52102.0,STARLINK-3709,PAYLOAD,2022-06-05 20:00:01,15.22373067,0.0001799,53.2174,122.5918,35.8877,28.5039,-0.026729,-0.00584684,0.0,0 STARLINK-3709,1 52102U 22029Q   22156.83334491 -.00584684  00000-0 -26729-1 0  9990,2 52102  53.2174 122.5918 0001799  35.8877  28.5039 15.22373067 13520,6876.821999999999,94.589,499.924,497.45,0.0
52102.0,STARLINK-3709,PAYLOAD,2022-06-05 22:00:00,15.22271419,0.0001919,53.2177,122.2104,38.4772,122.8613,-0.026866,-0.00585844,0.0,0 STARLINK-3709,1 52102U 22029Q   22156.91667824 -.00585844  00000-0 -26866-1 0  9999,2 52102  53.2177 122.2104 0001919  38.4772 122.8613 15.22271419  1301,6877.128000000002,94.595,500.31300000000016,497.673,0.0
52102.0,STARLINK-3709,PAYLOAD,2022-06-06 14:00:01,15.21447796,0.0001838,53.2174,119.1594,42.0465,173.7607,-0.027652,-0.00588293,0.0,0 STARLINK-3709,1 52102U 22029Q   22157.58334491 -.00588293  00000-0 -27652-1 0  9999,2 52102  53.2174 119.1594 0001838  42.0465 173.7607 15.21447796  1306,6879.61,94.647,502.739,500.21,0.0
52102.0,STARLINK-3709,PAYLOAD,2022-06-06 22:00:00,15.21034543,0.0001975,53.2176,117.6346,37.746,204.553,-0.027862,-0.00585768,0.0,0 STARLINK-3709,1 52102U 22029Q   22157.91667824 -.00585768  00000-0 -27862-1 0  9992,2 52102  53.2176 117.6346 0001975  37.7460 204.5530 15.21034543 13688,6880.856,94.672,504.08,501.362,0.0
52102.0,STARLINK-3709,PAYLOAD,2022-06-07 14:00:01,15.20211355,0.0001618,53.2175,114.5892,47.8801,245.915,-0.02874,-0.00589501,0.0,0 STARLINK-3709,1 52102U 22029Q   22158.58334491 -.00589501  00000-0 -28740-1 0  9992,2 52102  53.2175 114.5892 0001618  47.8801 245.9150 15.20211355  1304,6883.34,94.724,506.318,504.091,0.0
52102.0,STARLINK-3709,PAYLOAD,2022-06-07 22:00:00,15.1979747,0.0001795,53.2177,113.0674,40.1138,278.6869,-0.028885,-0.00585623,0.0,0 STARLINK-3709,1 52102U 22029Q   22158.91667824 -.00585623  00000-0 -28885-1 0  9999,2 52102  53.2177 113.0674 0001795  40.1138 278.6869 15.19797470  1308,6884.589,94.749,507.69,505.218,0.0
52102.0,STARLINK-3709,PAYLOAD,2022-06-08 06:00:02,15.1938489,0.000183,53.2176,111.5487,37.7443,305.6285,-0.029261,-0.00586112,0.0,0 STARLINK-3709,1 52102U 22029Q   22159.25002315 -.00586112  00000-0 -29261-1 0  9998,2 52102  53.2176 111.5487 0001830  37.7443 305.6285 15.19384890 13891,6885.835,94.775,508.961,506.44,0.0
52102.0,STARLINK-3709,PAYLOAD,2022-06-08 14:00:01,15.18973493,0.0001621,53.2175,110.0277,42.386,324.9384,-0.029725,-0.00588153,0.0,0 STARLINK-3709,1 52102U 22029Q   22159.58334491 -.00588153  00000-0 -29725-1 0  9999,2 52102  53.2175 110.0277 0001621  42.3860 324.9384 15.18973493  1303,6887.079000000002,94.801,510.06,507.827,0.0
52102.0,STARLINK-3709,PAYLOAD,2022-06-08 22:00:01,15.18560395,0.0001802,53.2176,108.509,36.8677,354.0388,-0.02996,-0.005859,0.0,0 STARLINK-3709,1 52102U 22029Q   22159.91668981 -.00585900  00000-0 -29960-1 0  9998,2 52102  53.2176 108.5090 0001802  36.8677 354.0388 15.18560395  1305,6888.328,94.827,511.434,508.951,0.0
52102.0,STARLINK-3709,PAYLOAD,2022-06-09 14:00:01,15.17735365,0.000178,53.2175,105.4749,37.3231,39.0716,-0.030691,-0.00586014,0.0,0 STARLINK-3709,1 52102U 22029Q   22160.58334491 -.00586014  00000-0 -30691-1 0  9999,2 52102  53.2175 105.4749 0001780  37.3231  39.0716 15.17735365  1303,6890.824000000001,94.878,513.915,511.462,0.0
